{
  "type": "FeatureCollection",
  "features": [
    {
      "type": "Feature",
      "properties": {
        "norad_id": 30504,
        "name": "FENGYUN 1C DEB",
        "group": "fengyun-1c-debris",
        "lat": 20.921419470610505,
        "lon": -146.49568255912354,
        "alt_km": 789.7515640326737,
        "timestamp": "2025-12-09T21:34:11.684748+00:00",
        "meta_object_name": "FENGYUN 1C DEB",
        "meta_object_id": "1999-025AHS",
        "meta_epoch": "2025-12-09T14:48:21.893184",
        "meta_mean_motion": 14.20481183,
        "meta_eccentricity": 0.01119895,
        "meta_inclination": 99.0254,
        "meta_ra_of_asc_node": 29.7332,
        "meta_arg_of_pericenter": 225.3024,
        "meta_mean_anomaly": 294.1817,
        "meta_ephemeris_type": 0,
        "meta_classification_type": "U",
        "meta_norad_cat_id": 30504,
        "meta_element_set_no": 999,
        "meta_rev_at_epoch": 97349,
        "meta_bstar": 0.00087981381,
        "meta_mean_motion_dot": 1.965e-05,
        "meta_mean_motion_ddot": 0,
        "tle_line1": "1 30504U 99025AHS 25343.61692006  .00001965  00000+0  87981-3 0  9990",
        "tle_line2": "2 30504  99.0254  29.7332 0111989 225.3024 294.1817 14.20481183973492"
      },
      "geometry": {
        "type": "Point",
        "coordinates": [
          -146.49568255912354,
          20.921419470610505
        ]
      }
    },
    {
      "type": "Feature",
      "properties": {
        "norad_id": 30505,
        "name": "FENGYUN 1C DEB",
        "group": "fengyun-1c-debris",
        "lat": 43.865561749038,
        "lon": 54.83537776184725,
        "alt_km": 855.933758650197,
        "timestamp": "2025-12-09T21:34:11.684758+00:00",
        "meta_object_name": "FENGYUN 1C DEB",
        "meta_object_id": "1999-025AHT",
        "meta_epoch": "2025-12-09T04:36:27.104832",
        "meta_mean_motion": 14.21993129,
        "meta_eccentricity": 0.00633125,
        "meta_inclination": 98.9258,
        "meta_ra_of_asc_node": 62.8084,
        "meta_arg_of_pericenter": 252.154,
        "meta_mean_anomaly": 136.1176,
        "meta_ephemeris_type": 0,
        "meta_classification_type": "U",
        "meta_norad_cat_id": 30505,
        "meta_element_set_no": 999,
        "meta_rev_at_epoch": 96873,
        "meta_bstar": 0.0020575388,
        "meta_mean_motion_dot": 4.596e-05,
        "meta_mean_motion_ddot": 0,
        "tle_line1": "1 30505U 99025AHT 25343.19198038  .00004596  00000+0  20575-2 0  9998",
        "tle_line2": "2 30505  98.9258  62.8084 0063312 252.1540 136.1176 14.21993129968737"
      },
      "geometry": {
        "type": "Point",
        "coordinates": [
          54.83537776184725,
          43.865561749038
        ]
      }
    },
    {
      "type": "Feature",
      "properties": {
        "norad_id": 30506,
        "name": "FENGYUN 1C DEB",
        "group": "fengyun-1c-debris",
        "lat": -28.90124684736958,
        "lon": 164.17345185419524,
        "alt_km": 912.428633007994,
        "timestamp": "2025-12-09T21:34:11.684772+00:00",
        "meta_object_name": "FENGYUN 1C DEB",
        "meta_object_id": "1999-025AHU",
        "meta_epoch": "2025-12-09T05:50:52.294848",
        "meta_mean_motion": 14.08645125,
        "meta_eccentricity": 0.0070447,
        "meta_inclination": 98.7569,
        "meta_ra_of_asc_node": 348.4186,
        "meta_arg_of_pericenter": 357.87,
        "meta_mean_anomaly": 131.5711,
        "meta_ephemeris_type": 0,
        "meta_classification_type": "U",
        "meta_norad_cat_id": 30506,
        "meta_element_set_no": 999,
        "meta_rev_at_epoch": 96772,
        "meta_bstar": 0.00057036,
        "meta_mean_motion_dot": 9.61e-06,
        "meta_mean_motion_ddot": 0,
        "tle_line1": "1 30506U 99025AHU 25343.24366082  .00000961  00000+0  57036-3 0  9996",
        "tle_line2": "2 30506  98.7569 348.4186 0070447 357.8700 131.5711 14.08645125967722"
      },
      "geometry": {
        "type": "Point",
        "coordinates": [
          164.17345185419524,
          -28.90124684736958
        ]
      }
    },
    {
      "type": "Feature",
      "properties": {
        "norad_id": 30507,
        "name": "FENGYUN 1C DEB",
        "group": "fengyun-1c-debris",
        "lat": -75.51729629731415,
        "lon": 86.27721656839769,
        "alt_km": 866.2623416570623,
        "timestamp": "2025-12-09T21:34:11.684782+00:00",
        "meta_object_name": "FENGYUN 1C DEB",
        "meta_object_id": "1999-025AHV",
        "meta_epoch": "2025-12-09T15:52:29.371584",
        "meta_mean_motion": 14.13155593,
        "meta_eccentricity": 0.01283936,
        "meta_inclination": 99.0133,
        "meta_ra_of_asc_node": 48.1226,
        "meta_arg_of_pericenter": 184.9183,
        "meta_mean_anomaly": 328.487,
        "meta_ephemeris_type": 0,
        "meta_classification_type": "U",
        "meta_norad_cat_id": 30507,
        "meta_element_set_no": 999,
        "meta_rev_at_epoch": 96454,
        "meta_bstar": 0.0019789962,
        "meta_mean_motion_dot": 3.96e-05,
        "meta_mean_motion_ddot": 0,
        "tle_line1": "1 30507U 99025AHV 25343.66145106  .00003960  00000+0  19790-2 0  9991",
        "tle_line2": "2 30507  99.0133  48.1226 0128393 184.9183 328.4870 14.13155593964542"
      },
      "geometry": {
        "type": "Point",
        "coordinates": [
          86.27721656839769,
          -75.51729629731415
        ]
      }
    },
    {
      "type": "Feature",
      "properties": {
        "norad_id": 30509,
        "name": "FENGYUN 1C DEB",
        "group": "fengyun-1c-debris",
        "lat": 28.882028936910267,
        "lon": 40.631173859017906,
        "alt_km": 851.6651604262006,
        "timestamp": "2025-12-09T21:34:11.684793+00:00",
        "meta_object_name": "FENGYUN 1C DEB",
        "meta_object_id": "1999-025AHX",
        "meta_epoch": "2025-12-09T14:10:58.157760",
        "meta_mean_motion": 14.07616411,
        "meta_eccentricity": 0.01013708,
        "meta_inclination": 98.4647,
        "meta_ra_of_asc_node": 215.6308,
        "meta_arg_of_pericenter": 72.3189,
        "meta_mean_anomaly": 318.358,
        "meta_ephemeris_type": 0,
        "meta_classification_type": "U",
        "meta_norad_cat_id": 30509,
        "meta_element_set_no": 999,
        "meta_rev_at_epoch": 95678,
        "meta_bstar": 0.0029807587,
        "meta_mean_motion_dot": 5.238e-05,
        "meta_mean_motion_ddot": 0,
        "tle_line1": "1 30509U 99025AHX 25343.59095090  .00005238  00000+0  29808-2 0  9992",
        "tle_line2": "2 30509  98.4647 215.6308 0101370  72.3189 318.3580 14.07616411956788"
      },
      "geometry": {
        "type": "Point",
        "coordinates": [
          40.631173859017906,
          28.882028936910267
        ]
      }
    },
    {
      "type": "Feature",
      "properties": {
        "norad_id": 30510,
        "name": "FENGYUN 1C DEB",
        "group": "fengyun-1c-debris",
        "lat": 33.4901529134341,
        "lon": -177.97745678989517,
        "alt_km": 797.3573207145782,
        "timestamp": "2025-12-09T21:34:11.684803+00:00",
        "meta_object_name": "FENGYUN 1C DEB",
        "meta_object_id": "1999-025AHY",
        "meta_epoch": "2025-12-09T11:26:43.475712",
        "meta_mean_motion": 14.12825815,
        "meta_eccentricity": 0.00786456,
        "meta_inclination": 99.2449,
        "meta_ra_of_asc_node": 355.4009,
        "meta_arg_of_pericenter": 175.3429,
        "meta_mean_anomaly": 346.5536,
        "meta_ephemeris_type": 0,
        "meta_classification_type": "U",
        "meta_norad_cat_id": 30510,
        "meta_element_set_no": 999,
        "meta_rev_at_epoch": 96528,
        "meta_bstar": 0.0019521698,
        "meta_mean_motion_dot": 3.691e-05,
        "meta_mean_motion_ddot": 0,
        "tle_line1": "1 30510U 99025AHY 25343.47689208  .00003691  00000+0  19522-2 0  9994",
        "tle_line2": "2 30510  99.2449 355.4009 0078645 175.3429 346.5536 14.12825815965284"
      },
      "geometry": {
        "type": "Point",
        "coordinates": [
          -177.97745678989517,
          33.4901529134341
        ]
      }
    },
    {
      "type": "Feature",
      "properties": {
        "norad_id": 30514,
        "name": "FENGYUN 1C DEB",
        "group": "fengyun-1c-debris",
        "lat": 70.1717090231238,
        "lon": -16.73040845670623,
        "alt_km": 662.2382244113705,
        "timestamp": "2025-12-09T21:34:11.684813+00:00",
        "meta_object_name": "FENGYUN 1C DEB",
        "meta_object_id": "1999-025AJC",
        "meta_epoch": "2025-12-09T12:52:08.097312",
        "meta_mean_motion": 14.34339777,
        "meta_eccentricity": 0.01745813,
        "meta_inclination": 98.4135,
        "meta_ra_of_asc_node": 7.1502,
        "meta_arg_of_pericenter": 103.5992,
        "meta_mean_anomaly": 258.4704,
        "meta_ephemeris_type": 0,
        "meta_classification_type": "U",
        "meta_norad_cat_id": 30514,
        "meta_element_set_no": 999,
        "meta_rev_at_epoch": 98179,
        "meta_bstar": 0.00076680216,
        "meta_mean_motion_dot": 2.514e-05,
        "meta_mean_motion_ddot": 0,
        "tle_line1": "1 30514U 99025AJC 25343.53620483  .00002514  00000+0  76680-3 0  9997",
        "tle_line2": "2 30514  98.4135   7.1502 0174581 103.5992 258.4704 14.34339777981797"
      },
      "geometry": {
        "type": "Point",
        "coordinates": [
          -16.73040845670623,
          70.1717090231238
        ]
      }
    }
  ]
}